[
    {
        "latitude": "5.934299471956952",
        "longitude": "-73.61576533067957",
        "temperature": "20",
        "pressure": "1,014",
        "localTime": "Mon Jul 24 2023 16:02:49 GMT-0500 (hora est\u00e1ndar de Colombia)",
        "julianTime": "1690232569",
        "utcTime": "4:02:58 PM",
        "altitude": "489.85",
        "elevation": "-45.8",
        "TLE": {
            "Norad_Id": 56205,
            "International_Classification": "Unclassified",
            "International_Designation": "23054AD",
            "Epoch_Time_(ISO)": "2023-07-24T12:19:44Z",
            "First_Derivative_Mean_Motion": 7.285e-5,
            "Second_Derivative_Mean_Motion": 0.0,
            "Inclination": 97.402,
            "Right_Ascension_of_the_Ascending_Node": 100.16450000000002,
            "Eccentricity": 0.0012864,
            "Argument_of_Perigee": 233.7209,
            "Mean_Anomaly": 126.28409999999998,
            "Mean_Motion": 15.25088651,
            "Revolution_Number_at_Epoch": 1587
        }
    },
    {
        "id": "f67bd4c6-0c5c-4c46-803e-328435edecbc",
        "latitude": "5.934299471956952",
        "longitude": "-73.61576533067957",
        "temperature": "21",
        "pressure": "1,017",
        "localTime": "Tue Jul 25 2023 08:34:21 GMT-0500 (hora est\u00e1ndar de Colombia)",
        "julianTime": "1690292061",
        "utcTime": "8:34:30 AM",
        "altitude": "499.82",
        "elevation": "-5.2",
        "TLE": {
            "Norad_Id": 56205,
            "International_Classification": "Unclassified",
            "International_Designation": "23054AD",
            "Epoch_Time_(ISO)": "2023-07-24T12:19:44Z",
            "First_Derivative_Mean_Motion": 7.285e-5,
            "Second_Derivative_Mean_Motion": 0.0,
            "Inclination": 97.402,
            "Right_Ascension_of_the_Ascending_Node": 100.16450000000002,
            "Eccentricity": 0.0012864,
            "Argument_of_Perigee": 233.7209,
            "Mean_Anomaly": 126.28409999999998,
            "Mean_Motion": 15.25088651,
            "Revolution_Number_at_Epoch": 1587
        }
    }
]
