20,"1,014","FACSAT-2                
1 56205U 23054AD  23205.51370268  .00007285  00000+0  29336-3 0  9993
2 56205  97.4020 100.1645 0012864 233.7209 126.2841 15.25088651 15872",Mon Jul 24 2023 15:15:52 GMT-0500 (hora estándar de Colombia),1690229752,3:16:00 PM,499.99,-33.7
